{
  "type": "FeatureCollection",
  "features": [
    {
      "type": "Feature",
      "properties": {
        "norad_id": 37836,
        "name": "EUTELSAT 16A",
        "group": "eutelsat",
        "lat": 0.03443263182542076,
        "lon": 14.415169756783005,
        "alt_km": 35797.22470893662,
        "timestamp": "2025-12-06T18:50:09.841944+00:00",
        "meta_object_name": "EUTELSAT 16A",
        "meta_object_id": "2011-057A",
        "meta_epoch": "2025-12-06T06:53:35.996352",
        "meta_mean_motion": 1.00269759,
        "meta_eccentricity": 0.00058839,
        "meta_inclination": 0.0582,
        "meta_ra_of_asc_node": 354.1528,
        "meta_arg_of_pericenter": 265.0147,
        "meta_mean_anomaly": 295.5692,
        "meta_ephemeris_type": 0,
        "meta_classification_type": "U",
        "meta_norad_cat_id": 37836,
        "meta_element_set_no": 999,
        "meta_rev_at_epoch": 539,
        "meta_bstar": 0,
        "meta_mean_motion_dot": 1.12e-06,
        "meta_mean_motion_ddot": 0,
        "tle_line1": "1 37836U 11057A   25340.28722218  .00000112  00000+0  00000+0 0  9999",
        "tle_line2": "2 37836   0.0582 354.1528 0005883 265.0147 295.5692  1.00269759  5395"
      },
      "geometry": {
        "type": "Point",
        "coordinates": [
          14.415169756783005,
          0.03443263182542076
        ]
      }
    },
    {
      "type": "Feature",
      "properties": {
        "norad_id": 38992,
        "name": "EUTELSAT 21B",
        "group": "eutelsat",
        "lat": 0.04804449537621626,
        "lon": 19.983733006851093,
        "alt_km": 35792.69506217569,
        "timestamp": "2025-12-06T18:50:09.841956+00:00",
        "meta_object_name": "EUTELSAT 21B",
        "meta_object_id": "2012-062B",
        "meta_epoch": "2025-12-06T05:12:30.679200",
        "meta_mean_motion": 1.00269615,
        "meta_eccentricity": 0.00032007,
        "meta_inclination": 0.0667,
        "meta_ra_of_asc_node": 351.7683,
        "meta_arg_of_pericenter": 271.6314,
        "meta_mean_anomaly": 271.5933,
        "meta_ephemeris_type": 0,
        "meta_classification_type": "U",
        "meta_norad_cat_id": 38992,
        "meta_element_set_no": 999,
        "meta_rev_at_epoch": 4789,
        "meta_bstar": 0,
        "meta_mean_motion_dot": 1.38e-06,
        "meta_mean_motion_ddot": 0,
        "tle_line1": "1 38992U 12062B   25340.21702175  .00000138  00000+0  00000+0 0  9991",
        "tle_line2": "2 38992   0.0667 351.7683 0003200 271.6314 271.5933  1.00269615 47892"
      },
      "geometry": {
        "type": "Point",
        "coordinates": [
          19.983733006851093,
          0.04804449537621626
        ]
      }
    },
    {
      "type": "Feature",
      "properties": {
        "norad_id": 39020,
        "name": "EUTELSAT 70B",
        "group": "eutelsat",
        "lat": 0.07959479904562479,
        "lon": 68.85170890537846,
        "alt_km": 35804.18664467901,
        "timestamp": "2025-12-06T18:50:09.841968+00:00",
        "meta_object_name": "EUTELSAT 70B",
        "meta_object_id": "2012-069A",
        "meta_epoch": "2025-12-06T03:43:43.619808",
        "meta_mean_motion": 1.00271869,
        "meta_eccentricity": 0.00043007,
        "meta_inclination": 0.0639,
        "meta_ra_of_asc_node": 8.1403,
        "meta_arg_of_pericenter": 235.7321,
        "meta_mean_anomaly": 317.7641,
        "meta_ephemeris_type": 0,
        "meta_classification_type": "U",
        "meta_norad_cat_id": 39020,
        "meta_element_set_no": 999,
        "meta_rev_at_epoch": 4757,
        "meta_bstar": 0,
        "meta_mean_motion_dot": -3.5e-07,
        "meta_mean_motion_ddot": 0,
        "tle_line1": "1 39020U 12069A   25340.15536597 -.00000035  00000+0  00000+0 0  9994",
        "tle_line2": "2 39020   0.0639   8.1403 0004300 235.7321 317.7641  1.00271869 47576"
      },
      "geometry": {
        "type": "Point",
        "coordinates": [
          68.85170890537846,
          0.07959479904562479
        ]
      }
    },
    {
      "type": "Feature",
      "properties": {
        "norad_id": 39122,
        "name": "EUTELSAT 117 WEST A",
        "group": "eutelsat",
        "lat": -0.039963637711237204,
        "lon": -118.45507589143757,
        "alt_km": 35773.59279922859,
        "timestamp": "2025-12-06T18:50:09.841980+00:00",
        "meta_object_name": "EUTELSAT 117 WEST A",
        "meta_object_id": "2013-012A",
        "meta_epoch": "2025-12-06T07:36:40.758624",
        "meta_mean_motion": 1.00269846,
        "meta_eccentricity": 0.00031684,
        "meta_inclination": 0.0154,
        "meta_ra_of_asc_node": 324.5048,
        "meta_arg_of_pericenter": 291.1491,
        "meta_mean_anomaly": 177.0817,
        "meta_ephemeris_type": 0,
        "meta_classification_type": "U",
        "meta_norad_cat_id": 39122,
        "meta_element_set_no": 999,
        "meta_rev_at_epoch": 4649,
        "meta_bstar": 0,
        "meta_mean_motion_dot": -5e-08,
        "meta_mean_motion_ddot": 0,
        "tle_line1": "1 39122U 13012A   25340.31713841 -.00000005  00000+0  00000+0 0  9990",
        "tle_line2": "2 39122   0.0154 324.5048 0003168 291.1491 177.0817  1.00269846 46490"
      },
      "geometry": {
        "type": "Point",
        "coordinates": [
          -118.45507589143757,
          -0.039963637711237204
        ]
      }
    },
    {
      "type": "Feature",
      "properties": {
        "norad_id": 39163,
        "name": "EUTELSAT 7B",
        "group": "eutelsat",
        "lat": 0.008227004989270464,
        "lon": 5.3769039901372455,
        "alt_km": 35775.39584971446,
        "timestamp": "2025-12-06T18:50:09.841992+00:00",
        "meta_object_name": "EUTELSAT 7B",
        "meta_object_id": "2013-022A",
        "meta_epoch": "2025-12-06T06:08:38.706720",
        "meta_mean_motion": 1.00270334,
        "meta_eccentricity": 0.00044275,
        "meta_inclination": 0.0688,
        "meta_ra_of_asc_node": 6.9802,
        "meta_arg_of_pericenter": 305.0312,
        "meta_mean_anomaly": 222.437,
        "meta_ephemeris_type": 0,
        "meta_classification_type": "U",
        "meta_norad_cat_id": 39163,
        "meta_element_set_no": 999,
        "meta_rev_at_epoch": 4602,
        "meta_bstar": 0,
        "meta_mean_motion_dot": 5.6e-07,
        "meta_mean_motion_ddot": 0,
        "tle_line1": "1 39163U 13022A   25340.25600355  .00000056  00000+0  00000+0 0  9999",
        "tle_line2": "2 39163   0.0688   6.9802 0004427 305.0312 222.4370  1.00270334 46024"
      },
      "geometry": {
        "type": "Point",
        "coordinates": [
          5.3769039901372455,
          0.008227004989270464
        ]
      }
    },
    {
      "type": "Feature",
      "properties": {
        "norad_id": 39612,
        "name": "EXPRESS-AT1",
        "group": "eutelsat",
        "lat": 0.035397211401179934,
        "lon": 54.34248967244119,
        "alt_km": 35787.50465389694,
        "timestamp": "2025-12-06T18:50:09.842004+00:00",
        "meta_object_name": "EXPRESS-AT1",
        "meta_object_id": "2014-010A",
        "meta_epoch": "2025-12-06T05:22:14.745792",
        "meta_mean_motion": 1.00271139,
        "meta_eccentricity": 5.724e-05,
        "meta_inclination": 0.0163,
        "meta_ra_of_asc_node": 299.5205,
        "meta_arg_of_pericenter": 237.3702,
        "meta_mean_anomaly": 34.9365,
        "meta_ephemeris_type": 0,
        "meta_classification_type": "U",
        "meta_norad_cat_id": 39612,
        "meta_element_set_no": 999,
        "meta_rev_at_epoch": 4288,
        "meta_bstar": 0,
        "meta_mean_motion_dot": 8.7e-07,
        "meta_mean_motion_ddot": 0,
        "tle_line1": "1 39612U 14010A   25340.22378178  .00000087  00000+0  00000+0 0  9992",
        "tle_line2": "2 39612   0.0163 299.5205 0000572 237.3702  34.9365  1.00271139 42889"
      },
      "geometry": {
        "type": "Point",
        "coordinates": [
          54.34248967244119,
          0.035397211401179934
        ]
      }
    },
    {
      "type": "Feature",
      "properties": {
        "norad_id": 39613,
        "name": "EXPRESS-AT2",
        "group": "eutelsat",
        "lat": 0.017204496657870782,
        "lon": 138.18724054792804,
        "alt_km": 35791.7056871613,
        "timestamp": "2025-12-06T18:50:09.842015+00:00",
        "meta_object_name": "EXPRESS-AT2",
        "meta_object_id": "2014-010B",
        "meta_epoch": "2025-12-06T00:21:38.642976",
        "meta_mean_motion": 1.00269562,
        "meta_eccentricity": 0.00014085,
        "meta_inclination": 0.0194,
        "meta_ra_of_asc_node": 344.2604,
        "meta_arg_of_pericenter": 299.8343,
        "meta_mean_anomaly": 296.2301,
        "meta_ephemeris_type": 0,
        "meta_classification_type": "U",
        "meta_norad_cat_id": 39613,
        "meta_element_set_no": 999,
        "meta_rev_at_epoch": 4256,
        "meta_bstar": 0,
        "meta_mean_motion_dot": 0,
        "meta_mean_motion_ddot": 0,
        "tle_line1": "1 39613U 14010B   25340.01503059  .00000000  00000+0  00000+0 0  9993",
        "tle_line2": "2 39613   0.0194 344.2604 0001408 299.8343 296.2301  1.00269562 42563"
      },
      "geometry": {
        "type": "Point",
        "coordinates": [
          138.18724054792804,
          0.017204496657870782
        ]
      }
    }
  ]
}